[{"OBJECT_NAME":"ONEWEB-0533","OBJECT_ID":"2023-004B","EPOCH":"2026-03-09T21:24:01.136448","MEAN_MOTION":13.12443329,"ECCENTRICITY":0.00016064,"INCLINATION":87.9007,"RA_OF_ASC_NODE":10.3749,"ARG_OF_PERICENTER":78.428,"MEAN_ANOMALY":281.7029,"EPHEMERIS_TYPE":0,"CLASSIFICATION_TYPE":"U","NORAD_CAT_ID":55141,"ELEMENT_SET_NO":999,"REV_AT_EPOCH":15503,"BSTAR":0.0011230774,"MEAN_MOTION_DOT":4.17e-6,"MEAN_MOTION_DDOT":0},{"OBJECT_NAME":"UNKNOWN","OBJECT_ID":"","EPOCH":"2026-03-05T18:48:55.282752","MEAN_MOTION":13.16435767,"ECCENTRICITY":0.0016249,"INCLINATION":82.4776,"RA_OF_ASC_NODE":189.4112,"ARG_OF_PERICENTER":239.19,"MEAN_ANOMALY":274.5257,"EPHEMERIS_TYPE":0,"CLASSIFICATION_TYPE":"U","NORAD_CAT_ID":82627,"ELEMENT_SET_NO":999,"REV_AT_EPOCH":58975,"BSTAR":0.0017379,"MEAN_MOTION_DOT":6.75e-6,"MEAN_MOTION_DDOT":0}]
